[Satellite]
VERSION=1.1
NAME=AEOLUS
NICKNAME=AEOLUS
TLE1=1 43600U 18066A   20158.00679157  .00027478  00000-0  10979-3 0  9992
TLE2=2 43600  96.7187 164.5785 0004516 114.5610 245.6134 15.86531572103555
STATUS=0
